TRANSPORTER-12 OBJECT BA
1 62657U 25009BA  26068.70118713  .00011330  00000+0  42733-3 0  9991
2 62657  97.3985 151.1390 0000403 234.6623 125.4579 15.27214003 63739
STARLINK-34010          
1 63848U 25093N   26068.43574139  .00026928  00000+0  98402-3 0  9998
2 63848  43.0039  79.3094 0002329 290.9216  69.1387 15.27594806 47717
